start=new Date('2022-05-31T00:00:00.000Z').valueOf();
sats=[{"ARG_OF_PERICENTER":"31.9345","SEMIMAJOR_AXIS":"6917.887","MEAN_MOTION":"15.08837795","FILE":"3472994","CENTER_NAME":"EARTH","GP_ID":"204979716","REF_FRAME":"TEME","DECAY_DATE":null,"REV_AT_EPOCH":"3047","MEAN_MOTION_DOT":"-0.00000200","BSTAR":"0.00000557280000","TLE_LINE2":"2 49430  53.2195 299.1346 0002084  31.9345 328.1774 15.08837795 30479","OBJECT_ID":"2021-104Y","OBJECT_NAME":"STARLINK-3138","PERIAPSIS":"538.310","TLE_LINE1":"1 49430U 21104Y   22150.81443119 -.00000200  00000-0  55728-5 0  9994","SITE":"AFETR","CLASSIFICATION_TYPE":"U","COUNTRY_CODE":"US","INCLINATION":"53.2195","APOAPSIS":"541.194","TIME_SYSTEM":"UTC","LAUNCH_DATE":"2021-11-13","OBJECT_TYPE":"PAYLOAD","MEAN_ANOMALY":"328.1774","ELEMENT_SET_NO":"999","RCS_SIZE":"LARGE","EPHEMERIS_TYPE":"0","NORAD_CAT_ID":"49430","RA_OF_ASC_NODE":"299.1346","ECCENTRICITY":"0.00020840","MEAN_MOTION_DDOT":"0.0000000000000","MEAN_ELEMENT_THEORY":"SGP4","PERIOD":"95.438","EPOCH":"2022-05-30T19:32:46.854816"},{"MEAN_ELEMENT_THEORY":"SGP4","MEAN_MOTION_DDOT":"0.0000000000000","ECCENTRICITY":"0.00024950","RA_OF_ASC_NODE":"298.6660","NORAD_CAT_ID":"49431","EPOCH":"2022-05-30T22:00:00.999936","PERIOD":"95.439","SITE":"AFETR","CLASSIFICATION_TYPE":"U","TLE_LINE1":"1 49431U 21104Z   22150.91667824  .00033541  00000-0  21164-2 0  9994","PERIAPSIS":"538.070","EPHEMERIS_TYPE":"0","RCS_SIZE":"LARGE","MEAN_ANOMALY":"24.7730","ELEMENT_SET_NO":"999","LAUNCH_DATE":"2021-11-13","OBJECT_TYPE":"PAYLOAD","TIME_SYSTEM":"UTC","APOAPSIS":"541.522","COUNTRY_CODE":"US","INCLINATION":"53.2172","MEAN_MOTION_DOT":"0.00033541","REV_AT_EPOCH":"130","DECAY_DATE":null,"GP_ID":"204979966","REF_FRAME":"TEME","OBJECT_NAME":"STARLINK-3153","OBJECT_ID":"2021-104Z","BSTAR":"0.00211640000000","TLE_LINE2":"2 49431  53.2172 298.6660 0002495  25.8162  24.7730 15.08823478  1307","MEAN_MOTION":"15.08823478","SEMIMAJOR_AXIS":"6917.931","ARG_OF_PERICENTER":"25.8162","CENTER_NAME":"EARTH","FILE":"3472994"},{"PERIOD":"95.437","EPOCH":"2022-05-30T22:00:00.999936","ECCENTRICITY":"0.00024110","NORAD_CAT_ID":"49432","RA_OF_ASC_NODE":"288.6845","MEAN_ELEMENT_THEORY":"SGP4","MEAN_MOTION_DDOT":"0.0000000000000","OBJECT_TYPE":"PAYLOAD","LAUNCH_DATE":"2021-11-13","MEAN_ANOMALY":"351.9148","ELEMENT_SET_NO":"999","INCLINATION":"53.2147","COUNTRY_CODE":"US","TIME_SYSTEM":"UTC","APOAPSIS":"541.381","EPHEMERIS_TYPE":"0","RCS_SIZE":"LARGE","CLASSIFICATION_TYPE":"U","SITE":"AFETR","PERIAPSIS":"538.045","TLE_LINE1":"1 49432U 21104AA  22150.91667824 -.00022777  00000-0 -14170-2 0  9995","TLE_LINE2":"2 49432  53.2147 288.6845 0002411  33.6567 351.9148 15.08850474  1302","BSTAR":"-0.00141700000000","OBJECT_NAME":"STARLINK-3158","OBJECT_ID":"2021-104AA","REF_FRAME":"TEME","GP_ID":"204979218","MEAN_MOTION_DOT":"-0.00022777","DECAY_DATE":null,"REV_AT_EPOCH":"130","FILE":"3472994","CENTER_NAME":"EARTH","ARG_OF_PERICENTER":"33.6567","MEAN_MOTION":"15.08850474","SEMIMAJOR_AXIS":"6917.848"},{"REF_FRAME":"TEME","GP_ID":"204978968","MEAN_MOTION_DOT":"-0.00000398","REV_AT_EPOCH":"130","DECAY_DATE":null,"TLE_LINE2":"2 49433  53.2167 278.6731 0002118  36.8718 348.8824 15.08840653  1309","BSTAR":"-0.00000691510000","OBJECT_NAME":"STARLINK-3079","OBJECT_ID":"2021-104AB","ARG_OF_PERICENTER":"36.8718","MEAN_MOTION":"15.08840653","SEMIMAJOR_AXIS":"6917.878","FILE":"3472994","CENTER_NAME":"EARTH","ECCENTRICITY":"0.00021180","RA_OF_ASC_NODE":"278.6731","NORAD_CAT_ID":"49433","MEAN_MOTION_DDOT":"0.0000000000000","MEAN_ELEMENT_THEORY":"SGP4","EPOCH":"2022-05-30T22:00:00.999936","PERIOD":"95.438","CLASSIFICATION_TYPE":"U","SITE":"AFETR","TLE_LINE1":"1 49433U 21104AB  22150.91667824 -.00000398  00000-0 -69151-5 0  9993","PERIAPSIS":"538.278","MEAN_ANOMALY":"348.8824","ELEMENT_SET_NO":"999","OBJECT_TYPE":"PAYLOAD","LAUNCH_DATE":"2021-11-13","APOAPSIS":"541.209","TIME_SYSTEM":"UTC","INCLINATION":"53.2167","COUNTRY_CODE":"US","EPHEMERIS_TYPE":"0","RCS_SIZE":"LARGE"},{"SEMIMAJOR_AXIS":"6917.879","MEAN_MOTION":"15.08840479","ARG_OF_PERICENTER":"29.1352","CENTER_NAME":"EARTH","FILE":"3472994","DECAY_DATE":null,"REV_AT_EPOCH":"130","MEAN_MOTION_DOT":"-0.00013080","GP_ID":"204980216","REF_FRAME":"TEME","OBJECT_ID":"2021-104AC","OBJECT_NAME":"STARLINK-3134","TLE_LINE2":"2 49434  53.2165 298.6824 0002500  29.1352 186.6841 15.08840479  1300","BSTAR":"-0.00080516000000","PERIAPSIS":"538.014","TLE_LINE1":"1 49434U 21104AC  22150.91667824 -.00013080  00000-0 -80516-3 0  9992","SITE":"AFETR","CLASSIFICATION_TYPE":"U","RCS_SIZE":"LARGE","EPHEMERIS_TYPE":"0","INCLINATION":"53.2165","COUNTRY_CODE":"US","APOAPSIS":"541.473","TIME_SYSTEM":"UTC","OBJECT_TYPE":"PAYLOAD","LAUNCH_DATE":"2021-11-13","ELEMENT_SET_NO":"999","MEAN_ANOMALY":"186.6841","MEAN_ELEMENT_THEORY":"SGP4","MEAN_MOTION_DDOT":"0.0000000000000","NORAD_CAT_ID":"49434","RA_OF_ASC_NODE":"298.6824","ECCENTRICITY":"0.00025000","PERIOD":"95.438","EPOCH":"2022-05-30T22:00:00.999936"},{"OBJECT_ID":"2021-104AD","OBJECT_NAME":"STARLINK-3117","BSTAR":"-0.00318620000000","TLE_LINE2":"2 49435  53.2158 278.6835 0001944  36.9954 323.5757 15.08859517  1310","REV_AT_EPOCH":"131","DECAY_DATE":null,"MEAN_MOTION_DOT":"-0.00050668","REF_FRAME":"TEME","GP_ID":"204980466","CENTER_NAME":"EARTH","FILE":"3472994","SEMIMAJOR_AXIS":"6917.821","MEAN_MOTION":"15.08859517","ARG_OF_PERICENTER":"36.9954","EPOCH":"2022-05-30T22:00:00.999936","PERIOD":"95.436","MEAN_MOTION_DDOT":"0.0000000000000","MEAN_ELEMENT_THEORY":"SGP4","RA_OF_ASC_NODE":"278.6835","NORAD_CAT_ID":"49435","ECCENTRICITY":"0.00019440","RCS_SIZE":"LARGE","EPHEMERIS_TYPE":"0","TIME_SYSTEM":"UTC","APOAPSIS":"541.031","COUNTRY_CODE":"US","INCLINATION":"53.2158","ELEMENT_SET_NO":"999","MEAN_ANOMALY":"323.5757","LAUNCH_DATE":"2021-11-13","OBJECT_TYPE":"PAYLOAD","TLE_LINE1":"1 49435U 21104AD  22150.91667824 -.00050668  00000-0 -31862-2 0  9995","PERIAPSIS":"538.341","SITE":"AFETR","CLASSIFICATION_TYPE":"U"},{"MEAN_MOTION":"15.08835397","SEMIMAJOR_AXIS":"6917.894","ARG_OF_PERICENTER":"37.6085","CENTER_NAME":"EARTH","FILE":"3472994","MEAN_MOTION_DOT":"-0.00002114","REV_AT_EPOCH":"130","DECAY_DATE":null,"REF_FRAME":"TEME","GP_ID":"204978719","OBJECT_NAME":"STARLINK-3049","OBJECT_ID":"2021-104AE","TLE_LINE2":"2 49436  53.2160 278.6680 0001831  37.6085 328.1468 15.08835397  1309","BSTAR":"-0.00011476000000","CLASSIFICATION_TYPE":"U","SITE":"AFETR","TLE_LINE1":"1 49436U 21104AE  22150.91667824 -.00002114  00000-0 -11476-3 0  9999","PERIAPSIS":"538.493","EPHEMERIS_TYPE":"0","RCS_SIZE":"LARGE","ELEMENT_SET_NO":"999","MEAN_ANOMALY":"328.1468","LAUNCH_DATE":"2021-11-13","OBJECT_TYPE":"PAYLOAD","TIME_SYSTEM":"UTC","APOAPSIS":"541.026","COUNTRY_CODE":"US","INCLINATION":"53.2160","MEAN_ELEMENT_THEORY":"SGP4","MEAN_MOTION_DDOT":"0.0000000000000","ECCENTRICITY":"0.00018310","RA_OF_ASC_NODE":"278.6680","NORAD_CAT_ID":"49436","EPOCH":"2022-05-30T22:00:00.999936","PERIOD":"95.438"},{"OBJECT_TYPE":"PAYLOAD","LAUNCH_DATE":"2021-11-13","MEAN_ANOMALY":"12.6437","ELEMENT_SET_NO":"999","COUNTRY_CODE":"US","INCLINATION":"53.2179","TIME_SYSTEM":"UTC","APOAPSIS":"541.418","EPHEMERIS_TYPE":"0","RCS_SIZE":"LARGE","CLASSIFICATION_TYPE":"U","SITE":"AFETR","PERIAPSIS":"538.086","TLE_LINE1":"1 49437U 21104AF  22150.91667824  .00001478  00000-0  11094-3 0  9996","PERIOD":"95.438","EPOCH":"2022-05-30T22:00:00.999936","ECCENTRICITY":"0.00024080","NORAD_CAT_ID":"49437","RA_OF_ASC_NODE":"278.6832","MEAN_MOTION_DDOT":"0.0000000000000","MEAN_ELEMENT_THEORY":"SGP4","FILE":"3472994","CENTER_NAME":"EARTH","ARG_OF_PERICENTER":"33.1294","MEAN_MOTION":"15.08837810","SEMIMAJOR_AXIS":"6917.887","BSTAR":"0.00011094000000","TLE_LINE2":"2 49437  53.2179 278.6832 0002408  33.1294  12.6437 15.08837810  1306","OBJECT_NAME":"STARLINK-3130","OBJECT_ID":"2021-104AF","REF_FRAME":"TEME","GP_ID":"204979468","MEAN_MOTION_DOT":"0.00001478","DECAY_DATE":null,"REV_AT_EPOCH":"130"},{"SEMIMAJOR_AXIS":"6917.916","MEAN_MOTION":"15.08828314","ARG_OF_PERICENTER":"26.7826","CENTER_NAME":"EARTH","FILE":"3472994","REV_AT_EPOCH":"130","DECAY_DATE":null,"MEAN_MOTION_DOT":"-0.00020163","REF_FRAME":"TEME","GP_ID":"204979717","OBJECT_ID":"2021-104AG","OBJECT_NAME":"STARLINK-3044","BSTAR":"-0.00125260000000","TLE_LINE2":"2 49438  53.2163 278.6821 0002456  26.7826  39.0848 15.08828314  1308","TLE_LINE1":"1 49438U 21104AG  22150.91667824 -.00020163  00000-0 -12526-2 0  9991","PERIAPSIS":"538.082","CLASSIFICATION_TYPE":"U","SITE":"AFETR","RCS_SIZE":"LARGE","EPHEMERIS_TYPE":"0","TIME_SYSTEM":"UTC","APOAPSIS":"541.480","COUNTRY_CODE":"US","INCLINATION":"53.2163","ELEMENT_SET_NO":"999","MEAN_ANOMALY":"39.0848","OBJECT_TYPE":"PAYLOAD","LAUNCH_DATE":"2021-11-13","MEAN_ELEMENT_THEORY":"SGP4","MEAN_MOTION_DDOT":"0.0000000000000","RA_OF_ASC_NODE":"278.6821","NORAD_CAT_ID":"49438","ECCENTRICITY":"0.00024560","EPOCH":"2022-05-30T22:00:00.999936","PERIOD":"95.438"},{"INCLINATION":"53.2180","COUNTRY_CODE":"US","APOAPSIS":"541.451","TIME_SYSTEM":"UTC","LAUNCH_DATE":"2021-11-13","OBJECT_TYPE":"PAYLOAD","MEAN_ANOMALY":"140.0379","ELEMENT_SET_NO":"999","RCS_SIZE":"LARGE","EPHEMERIS_TYPE":"0","PERIAPSIS":"538.046","TLE_LINE1":"1 49439U 21104AH  22150.91667824  .00006234  00000-0  40947-3 0  9992","SITE":"AFETR","CLASSIFICATION_TYPE":"U","PERIOD":"95.438","EPOCH":"2022-05-30T22:00:00.999936","NORAD_CAT_ID":"49439","RA_OF_ASC_NODE":"278.6738","ECCENTRICITY":"0.00024610","MEAN_ELEMENT_THEORY":"SGP4","MEAN_MOTION_DDOT":"0.0000000000000","FILE":"3472994","CENTER_NAME":"EARTH","ARG_OF_PERICENTER":"25.7609","SEMIMAJOR_AXIS":"6917.884","MEAN_MOTION":"15.08838869","TLE_LINE2":"2 49439  53.2180 278.6738 0002461  25.7609 140.0379 15.08838869  1307","BSTAR":"0.00040947000000","OBJECT_ID":"2021-104AH","OBJECT_NAME":"STARLINK-3108","GP_ID":"204979967","REF_FRAME":"TEME","DECAY_DATE":null,"REV_AT_EPOCH":"130","MEAN_MOTION_DOT":"0.00006234"}];
